IRIDIUM 119             
1 42959U 17061E   24109.76567646  .00000023  00000+0  12396-5 0  9997
2 42959  86.4015 355.1570 0002423  84.2465 275.9007 14.34216807341667
IRIDIUM 107             
1 42960U 17061F   24109.71494084 -.00001235  00000+0 -44823-3 0  9995
2 42960  86.4007 355.1931 0002367  78.4301 281.7160 14.34216020341675
IRIDIUM 132             
1 42961U 17061G   24109.23289964  .00000274  00000+0  90661-4 0  9994
2 42961  86.4013 355.3801 0002305  80.3245 279.8212 14.34218895341591
IRIDIUM 136             
1 42962U 17061H   24109.68322535  .00000042  00000+0  79220-5 0  9998
2 42962  86.4013 355.1953 0002419  89.1240 271.0233 14.34218119341671
IRIDIUM 139             
1 42963U 17061J   24109.68956114  .00000190  00000+0  60672-4 0  9999
2 42963  86.4016 355.2419 0002362  79.7111 280.4351 14.34217933341681
IRIDIUM 125             
1 42964U 17061K   24109.60710929  .00000170  00000+0  53481-4 0  9992
2 42964  86.4017 355.3225 0002524  86.6466 273.5019 14.34221500341688
IRIDIUM 135             
1 43070U 17083A   24109.51148875  .00000312  00000+0  10444-3 0  9999
2 43070  86.3912 292.0341 0001706  88.4167 271.7224 14.34218914330967
IRIDIUM 138             
1 43071U 17083B   24109.60662851  .00000309  00000+0  10329-3 0  9993
2 43071  86.3903 291.7189 0002381  90.6122 269.5347 14.34220230330965
